XRISM                   
1 57800U 23137A   23268.63317803  .00006272  00000+0  51222-3 0  9999
2 57800  31.0028 258.6136 0009929 102.3005 257.8742 14.97976494  2790
